NORAD_CAT_ID,OBJECT_NAME,OBJECT_TYPE,EPOCH,MEAN_MOTION,ECCENTRICITY,INCLINATION,RA_OF_ASC_NODE,ARG_OF_PERICENTER,MEAN_ANOMALY,BSTAR,MEAN_MOTION_DOT,MEAN_MOTION_DDOT,TLE_LINE0,TLE_LINE1,TLE_LINE2,SEMIMAJOR_AXIS,PERIOD,APOGEE,PERIGEE,DECAYED
55401.0,STARLINK-5076,PAYLOAD,2023-11-01 14:24:15,14.98344884,0.0002942,70.001,70.4675,268.4642,91.618,-0.00022442,-2.771e-05,0.0,0 STARLINK-5076,1 55401U 23014L   23305.60017703 -.00002771  00000-0 -22442-3 0  9998,2 55401  70.0010  70.4675 0002942 268.4642  91.6180 14.98344884 43378,6950.147,96.106,574.057,569.967,0.0
55401.0,STARLINK-5076,PAYLOAD,2023-11-01 19:12:39,14.9833024,0.0003056,70.0011,69.9624,270.8157,89.2652,8.6979e-05,9.45e-06,0.0,0 STARLINK-5076,1 55401U 23014L   23305.80045828  .00000945  00000-0  86979-4 0  9994,2 55401  70.0011  69.9624 0003056 270.8157  89.2652 14.98330240 43403,6950.192,96.107,574.181,569.933,0.0
55401.0,STARLINK-5076,PAYLOAD,2023-11-02 14:26:16,14.9833149,0.0002927,70.0009,67.9433,270.1009,89.9815,4.7211e-05,4.7e-06,0.0,0 STARLINK-5076,1 55401U 23014L   23306.60157891  .00000470  00000-0  47211-4 0  9996,2 55401  70.0009  67.9433 0002927 270.1009  89.9815 14.98331490 43520,6950.188,96.107,574.088,570.019,0.0
55401.0,STARLINK-5076,PAYLOAD,2023-11-02 17:38:32,14.98339511,0.0002624,70.0009,67.6061,259.6975,100.3889,-9.7172e-05,-1.252e-05,0.0,0 STARLINK-5076,1 55401U 23014L   23306.73509680 -.00001252  00000-0 -97172-4 0  9999,2 55401  70.0009  67.6061 0002624 259.6975 100.3889 14.98339511 42601,6950.163,96.106,573.852,570.205,0.0
55401.0,STARLINK-5076,PAYLOAD,2023-11-03 11:16:01,14.9832542,0.0002965,70.0008,65.7539,270.966,89.116,-2.6096e-05,-4.04e-06,0.0,0 STARLINK-5076,1 55401U 23014L   23307.46946427 -.00000404  00000-0 -26096-4 0  9999,2 55401  70.0008  65.7539 0002965 270.9660  89.1160 14.98325420 42716,6950.207,96.107,574.133,570.011,0.0
55401.0,STARLINK-5076,PAYLOAD,2023-11-03 14:28:17,14.98329348,0.0002986,70.0009,65.4176,271.0127,89.069,-8.2471e-05,-1.077e-05,0.0,0 STARLINK-5076,1 55401U 23014L   23307.60298367 -.00001077  00000-0 -82471-4 0  9994,2 55401  70.0009  65.4176 0002986 271.0127  89.0690 14.98329348 43670,6950.195,96.107,574.135,569.985,0.0
55401.0,STARLINK-5076,PAYLOAD,2023-11-03 17:40:33,14.98334911,0.0002928,70.0012,65.0814,271.8537,88.2286,-6.6331e-05,-8.84e-06,0.0,0 STARLINK-5076,1 55401U 23014L   23307.73649953 -.00000884  00000-0 -66331-4 0  9991,2 55401  70.0012  65.0814 0002928 271.8537  88.2286 14.98334911 42750,6950.178,96.107,574.078,570.008,0.0
55401.0,STARLINK-5076,PAYLOAD,2023-11-04 14:30:18,14.98329557,0.0002819,70.0013,62.8934,265.4628,94.6209,1.3056e-05,6.3e-07,0.0,0 STARLINK-5076,1 55401U 23014L   23308.60437994  .00000063  00000-0  13056-4 0  9991,2 55401  70.0013  62.8934 0002819 265.4628  94.6209 14.98329557 43823,6950.194,96.107,574.019,570.1,0.0
55401.0,STARLINK-5076,PAYLOAD,2023-11-04 17:42:34,14.98333046,0.0002785,70.0012,62.5567,266.7995,93.2846,4.5961e-05,4.56e-06,0.0,0 STARLINK-5076,1 55401U 23014L   23308.73789696  .00000456  00000-0  45961-4 0  9990,2 55401  70.0012  62.5567 0002785 266.7995  93.2846 14.98333046 42902,6950.183,96.107,573.984,570.113,0.0
55401.0,STARLINK-5076,PAYLOAD,2023-11-05 14:32:14,14.98387683,0.0002803,70.002,60.368,258.5802,101.5042,0.00074837,8.861e-05,0.0,0 STARLINK-5076,1 55401U 23014L   23309.60572357  .00008861  00000-0  74837-3 0  9992,2 55401  70.0020  60.3680 0002803 258.5802 101.5042 14.98387683 43975,6950.015,96.103,573.828,569.931,0.0
55401.0,STARLINK-5076,PAYLOAD,2023-11-05 17:44:33,14.98350343,0.0002824,70.0019,60.0317,257.2031,102.8812,0.00027037,3.136e-05,0.0,0 STARLINK-5076,1 55401U 23014L   23309.73927607  .00003136  00000-0  27037-3 0  9998,2 55401  70.0019  60.0317 0002824 257.2031 102.8812 14.98350343 43051,6950.13,96.106,573.958,570.032,0.0
55401.0,STARLINK-5076,PAYLOAD,2023-11-06 11:22:02,14.98342396,0.0002594,70.0026,58.1821,268.9476,91.1386,8.6628e-05,9.41e-06,0.0,0 STARLINK-5076,1 55401U 23014L   23310.47364047  .00000941  00000-0  86628-4 0  9997,2 55401  70.0026  58.1821 0002594 268.9476  91.1386 14.98342396 43160,6950.155,96.106,573.822,570.217,0.0
55401.0,STARLINK-5076,PAYLOAD,2023-11-06 14:34:20,14.98315524,0.0002438,70.002,57.8437,270.8267,89.2613,-0.00015475,-1.938e-05,0.0,0 STARLINK-5076,1 55401U 23014L   23310.60718379 -.00001938  00000-0 -15475-3 0  9993,2 55401  70.0020  57.8437 0002438 270.8267  89.2613 14.98315524 44121,6950.238,96.108,573.797,570.408,0.0
55401.0,STARLINK-5076,PAYLOAD,2023-11-06 16:10:30,14.98294071,0.0002479,70.0016,57.6745,273.7369,86.3507,-0.00039265,-4.77e-05,0.0,0 STARLINK-5076,1 55401U 23014L   23310.67396357 -.00004770  00000-0 -39265-3 0  9998,2 55401  70.0016  57.6745 0002479 273.7369  86.3507 14.98294071 43195,6950.304,96.109,573.892,570.446,0.0
55401.0,STARLINK-5076,PAYLOAD,2023-11-07 00:11:10,14.98313247,0.0002962,70.0019,56.8333,265.3125,94.7696,-0.00066367,-7.999e-05,0.0,0 STARLINK-5076,1 55401U 23014L   23311.00776081 -.00007999  00000-0 -66367-3 0  9991,2 55401  70.0019  56.8333 0002962 265.3125  94.7696 14.98313247 43241,6950.245,96.108,574.168,570.051,0.0
55401.0,STARLINK-5076,PAYLOAD,2023-11-07 11:24:06,14.98311179,0.0002674,70.0016,55.6552,262.1297,97.9559,-0.00025432,-3.125e-05,0.0,0 STARLINK-5076,1 55401U 23014L   23311.47507943 -.00003125  00000-0 -25432-3 0  9996,2 55401  70.0016  55.6552 0002674 262.1297  97.9559 14.98311179 43316,6950.251,96.108,573.975,570.258,0.0
55401.0,STARLINK-5076,PAYLOAD,2023-11-07 14:36:22,14.98313057,0.0002858,70.0014,55.3186,267.4045,92.6786,-0.00023963,-2.95e-05,0.0,0 STARLINK-5076,1 55401U 23014L   23311.60859929 -.00002950  00000-0 -23963-3 0  9997,2 55401  70.0014  55.3186 0002858 267.4045  92.6786 14.98313057 44274,6950.245,96.108,574.097,570.124,0.0
55401.0,STARLINK-5076,PAYLOAD,2023-11-08 00:13:10,14.98327993,0.0002595,70.0017,54.3102,268.2765,91.8097,-0.00023377,-2.881e-05,0.0,0 STARLINK-5076,1 55401U 23014L   23312.00915300 -.00002881  00000-0 -23377-3 0  9990,2 55401  70.0017  54.3102 0002595 268.2765  91.8097 14.98327993 43392,6950.199,96.107,573.868,570.261,0.0
55401.0,STARLINK-5076,PAYLOAD,2023-11-08 11:26:06,14.98335347,0.0002966,70.0019,53.1324,269.6037,90.4782,1.4236e-05,7.7e-07,0.0,0 STARLINK-5076,1 55401U 23014L   23312.47646173  .00000077  00000-0  14236-4 0  9998,2 55401  70.0019  53.1324 0002966 269.6037  90.4782 14.98335347 43462,6950.176,96.107,574.103,569.98,0.0
55401.0,STARLINK-5076,PAYLOAD,2023-11-08 14:38:22,14.98337432,0.0002671,70.0022,52.796,261.336,98.7496,4.753e-05,4.74e-06,0.0,0 STARLINK-5076,1 55401U 23014L   23312.60997922  .00000474  00000-0  47530-4 0  9998,2 55401  70.0022  52.7960 0002671 261.3360  98.7496 14.98337432 44425,6950.17,96.107,573.891,570.179,0.0
55401.0,STARLINK-5076,PAYLOAD,2023-11-08 16:14:30,14.98338613,0.0002727,70.0022,52.6277,263.1789,96.906,6.104e-05,6.36e-06,0.0,0 STARLINK-5076,1 55401U 23014L   23312.67673799  .00000636  00000-0  61040-4 0  9990,2 55401  70.0022  52.6277 0002727 263.1789  96.9060 14.98338613 44432,6950.166,96.106,573.927,570.136,0.0
55401.0,STARLINK-5076,PAYLOAD,2023-11-09 11:28:07,14.98326294,0.0002705,70.0028,50.6086,256.0175,104.0683,0.00023896,2.759e-05,0.0,0 STARLINK-5076,1 55401U 23014L   23313.47786520  .00002759  00000-0  23896-3 0  9990,2 55401  70.0028  50.6086 0002705 256.0175 104.0683 14.98326294 43613,6950.204,96.107,573.949,570.189,0.0
55401.0,STARLINK-5076,PAYLOAD,2023-11-09 14:40:23,14.98325552,0.0002748,70.0028,50.2725,256.2968,103.7885,0.00028394,3.296e-05,0.0,0 STARLINK-5076,1 55401U 23014L   23313.61138454  .00003296  00000-0  28394-3 0  9998,2 55401  70.0028  50.2725 0002748 256.2968 103.7885 14.98325552 44570,6950.207,96.107,573.982,570.162,0.0
55401.0,STARLINK-5076,PAYLOAD,2023-11-09 16:16:31,14.98329959,0.0002828,70.0022,50.1027,269.6162,90.4673,0.00029352,3.411e-05,0.0,0 STARLINK-5076,1 55401U 23014L   23313.67814246  .00003411  00000-0  29352-3 0  9998,2 55401  70.0022  50.1027 0002828 269.6162  90.4673 14.98329959 44584,6950.193,96.107,574.024,570.093,0.0
55401.0,STARLINK-5076,PAYLOAD,2023-11-10 11:30:08,14.98336945,0.0002941,70.0014,48.0813,270.2801,89.8021,-3.2244e-06,-1.31e-06,0.0,0 STARLINK-5076,1 55401U 23014L   23314.47926277 -.00000131  00000-0 -32244-5 0  9999,2 55401  70.0014  48.0813 0002941 270.2801  89.8021 14.98336945 43769,6950.171,96.107,574.08,569.992,0.0
55401.0,STARLINK-5076,PAYLOAD,2023-11-10 14:42:24,14.98340786,0.0002824,70.0014,47.745,267.5814,92.5022,-4.0316e-05,-5.74e-06,0.0,0 STARLINK-5076,1 55401U 23014L   23314.61278041 -.00000574  00000-0 -40316-4 0  9993,2 55401  70.0014  47.7450 0002824 267.5814  92.5022 14.98340786 44722,6950.16,96.106,573.987,570.062,0.0
55401.0,STARLINK-5076,PAYLOAD,2023-11-10 16:18:32,14.98341356,0.0002812,70.0015,47.5767,267.438,92.6457,-3.2403e-05,-4.8e-06,0.0,0 STARLINK-5076,1 55401U 23014L   23314.67953934 -.00000480  00000-0 -32403-4 0  9994,2 55401  70.0015  47.5767 0002812 267.4380  92.6457 14.98341356 44734,6950.158,96.106,573.977,570.068,0.0
55401.0,STARLINK-5076,PAYLOAD,2023-11-11 11:32:09,14.98332779,0.0002766,70.0016,45.5568,268.3699,91.7143,-9.482e-05,-1.224e-05,0.0,0 STARLINK-5076,1 55401U 23014L   23315.48066312 -.00001224  00000-0 -94820-4 0  9997,2 55401  70.0016  45.5568 0002766 268.3699  91.7143 14.98332779 43913,6950.184,96.107,573.972,570.127,0.0
55401.0,STARLINK-5076,PAYLOAD,2023-11-11 13:08:17,14.98334996,0.0002813,70.0014,45.3884,268.6209,91.4628,-5.6355e-05,-7.65e-06,0.0,0 STARLINK-5076,1 55401U 23014L   23315.54742033 -.00000765  00000-0 -56355-4 0  9995,2 55401  70.0014  45.3884 0002813 268.6209  91.4628 14.98334996 44866,6950.177,96.107,573.998,570.087,0.0
55401.0,STARLINK-5076,PAYLOAD,2023-11-11 16:20:33,14.98335907,0.0002686,70.0015,45.0518,265.6491,94.4361,-6.2284e-05,-8.36e-06,0.0,0 STARLINK-5076,1 55401U 23014L   23315.68093940 -.00000836  00000-0 -62284-4 0  9993,2 55401  70.0015  45.0518 0002686 265.6491  94.4361 14.98335907 44888,6950.175,96.107,573.906,570.173,0.0
